[{"OBJECT_NAME":"STARLINK-36902","OBJECT_ID":"2026-041D","EPOCH":"2026-03-09T22:00:01.999584","MEAN_MOTION":15.91387184,"ECCENTRICITY":5.718e-5,"INCLINATION":53.1596,"RA_OF_ASC_NODE":61.1048,"ARG_OF_PERICENTER":107.2644,"MEAN_ANOMALY":218.3117,"EPHEMERIS_TYPE":0,"CLASSIFICATION_TYPE":"U","NORAD_CAT_ID":68043,"ELEMENT_SET_NO":999,"REV_AT_EPOCH":241,"BSTAR":-0.0048436014,"MEAN_MOTION_DOT":-0.0158748,"MEAN_MOTION_DDOT":0.00070568782},{"OBJECT_NAME":"FENGYUN 1C DEB","OBJECT_ID":"1999-025AMT","EPOCH":"2026-03-09T00:15:23.574528","MEAN_MOTION":15.70909629,"ECCENTRICITY":0.00138927,"INCLINATION":99.0703,"RA_OF_ASC_NODE":83.4899,"ARG_OF_PERICENTER":75.2074,"MEAN_ANOMALY":313.8054,"EPHEMERIS_TYPE":0,"CLASSIFICATION_TYPE":"U","NORAD_CAT_ID":30612,"ELEMENT_SET_NO":999,"REV_AT_EPOCH":1589,"BSTAR":0.0070902188,"MEAN_MOTION_DOT":0.00977467,"MEAN_MOTION_DDOT":0}]
